STARLINK-35548          
1 66203U 25243AC  25326.16673610  .00076028  00000+0  13641-2 0  9990
2 66203  53.1603  25.1484 0001126  90.9570 317.1593 15.49260577  5337
STARLINK-35490          
1 66204U 25243AD  25326.16673610 -.00015386  00000+0 -26907-3 0  9993
2 66204  53.1601  25.1559 0001200  86.7857 317.4760 15.49313690  5225
STARLINK-35748          
1 66206U 25244A   25326.16673610  .00039418  00000+0  99111-3 0  9993
2 66206  53.1594  13.1169 0001309 107.8801 270.9225 15.39595848  4950
STARLINK-35747          
1 66207U 25244B   25325.62710275  .00190285  00000+0  12697-2 0  9996
2 66207  53.1598  14.0173 0001253 135.7102 224.4019 15.74275547  5082
STARLINK-35751          
1 66208U 25244C   25326.16673610  .00038632  00000+0  97162-3 0  9996
2 66208  53.1594  13.1128 0001767  85.8903 294.7520 15.39596382  5062
STARLINK-35750          
1 66209U 25244D   25326.16673610  .00048806  00000+0  12247-2 0  9991
2 66209  53.1593  13.0601 0001112 107.7235 298.7378 15.39560000  5033
STARLINK-35740          
1 66210U 25244E   25326.16673610  .00076047  00000+0  18922-2 0  9997
2 66210  53.1594  13.0646 0000902  94.1405 310.4028 15.39620883  4904
STARLINK-35723          
1 66211U 25244F   25326.16673610  .00038565  00000+0  96979-3 0  9990
2 66211  53.1596  13.0125 0001407  95.8080 334.4873 15.39602335  4958
STARLINK-35710          
1 66212U 25244G   25326.16673610  .00058222  00000+0  14553-2 0  9990
2 66212  53.1599  12.9607 0002074  85.0905  10.8871 15.39601673  5030
STARLINK-34204          
1 66213U 25244H   25326.16673610  .00038716  00000+0  97355-3 0  9999
2 66213  53.1596  13.0091 0001398  78.2025 353.9406 15.39601357  5227
STARLINK-35714          
1 66214U 25244J   25326.16673610 -.01968039  00000+0 -49349-1 0  9991
2 66214  53.1608  12.8656 0000985  74.9195  68.2559 15.42927712  4907
STARLINK-35712          
1 66215U 25244K   25325.94410775  .00086926  00000+0  15747-2 0  9997
2 66215  53.1600  13.8929 0007902 241.5361 118.4852 15.48896112  5110
