CCSDS_OMM_VERS = 2.0
CREATION_DATE  = 
ORIGINATOR     = 

OBJECT_NAME    = STARLINK-35548
OBJECT_ID      = 2025-243AC
CENTER_NAME    = EARTH
REF_FRAME      = TEME
TIME_SYSTEM    = UTC
MEAN_ELEMENT_THEORY = SGP/SGP4

EPOCH          = 2025-11-22T04:00:05.999040
MEAN_MOTION    = 15.49260577
ECCENTRICITY   = .0001126
INCLINATION    = 53.1603
RA_OF_ASC_NODE = 25.1484
ARG_OF_PERICENTER = 90.9570
MEAN_ANOMALY   = 317.1593

EPHEMERIS_TYPE = 0
CLASSIFICATION_TYPE = U
NORAD_CAT_ID   = 66203
ELEMENT_SET_NO = 999
REV_AT_EPOCH   = 533
BSTAR          = .13641E-2
MEAN_MOTION_DOT = .76028E-3
MEAN_MOTION_DDOT = 0

CCSDS_OMM_VERS = 2.0
CREATION_DATE  = 
ORIGINATOR     = 

OBJECT_NAME    = STARLINK-35490
OBJECT_ID      = 2025-243AD
CENTER_NAME    = EARTH
REF_FRAME      = TEME
TIME_SYSTEM    = UTC
MEAN_ELEMENT_THEORY = SGP/SGP4

EPOCH          = 2025-11-22T04:00:05.999040
MEAN_MOTION    = 15.49313690
ECCENTRICITY   = .00012
INCLINATION    = 53.1601
RA_OF_ASC_NODE = 25.1559
ARG_OF_PERICENTER = 86.7857
MEAN_ANOMALY   = 317.4760

EPHEMERIS_TYPE = 0
CLASSIFICATION_TYPE = U
NORAD_CAT_ID   = 66204
ELEMENT_SET_NO = 999
REV_AT_EPOCH   = 522
BSTAR          = -.26907E-3
MEAN_MOTION_DOT = -.15386E-3
MEAN_MOTION_DDOT = 0

CCSDS_OMM_VERS = 2.0
CREATION_DATE  = 
ORIGINATOR     = 

OBJECT_NAME    = STARLINK-35748
OBJECT_ID      = 2025-244A
CENTER_NAME    = EARTH
REF_FRAME      = TEME
TIME_SYSTEM    = UTC
MEAN_ELEMENT_THEORY = SGP/SGP4

EPOCH          = 2025-11-22T04:00:05.999040
MEAN_MOTION    = 15.39595848
ECCENTRICITY   = .0001309
INCLINATION    = 53.1594
RA_OF_ASC_NODE = 13.1169
ARG_OF_PERICENTER = 107.8801
MEAN_ANOMALY   = 270.9225

EPHEMERIS_TYPE = 0
CLASSIFICATION_TYPE = U
NORAD_CAT_ID   = 66206
ELEMENT_SET_NO = 999
REV_AT_EPOCH   = 495
BSTAR          = .99111E-3
MEAN_MOTION_DOT = .39418E-3
MEAN_MOTION_DDOT = 0

CCSDS_OMM_VERS = 2.0
CREATION_DATE  = 
ORIGINATOR     = 

OBJECT_NAME    = STARLINK-35747
OBJECT_ID      = 2025-244B
CENTER_NAME    = EARTH
REF_FRAME      = TEME
TIME_SYSTEM    = UTC
MEAN_ELEMENT_THEORY = SGP/SGP4

EPOCH          = 2025-11-21T15:03:01.677600
MEAN_MOTION    = 15.74275547
ECCENTRICITY   = .0001253
INCLINATION    = 53.1598
RA_OF_ASC_NODE = 14.0173
ARG_OF_PERICENTER = 135.7102
MEAN_ANOMALY   = 224.4019

EPHEMERIS_TYPE = 0
CLASSIFICATION_TYPE = U
NORAD_CAT_ID   = 66207
ELEMENT_SET_NO = 999
REV_AT_EPOCH   = 508
BSTAR          = .12697E-2
MEAN_MOTION_DOT = .190285E-2
MEAN_MOTION_DDOT = 0

CCSDS_OMM_VERS = 2.0
CREATION_DATE  = 
ORIGINATOR     = 

OBJECT_NAME    = STARLINK-35751
OBJECT_ID      = 2025-244C
CENTER_NAME    = EARTH
REF_FRAME      = TEME
TIME_SYSTEM    = UTC
MEAN_ELEMENT_THEORY = SGP/SGP4

EPOCH          = 2025-11-22T04:00:05.999040
MEAN_MOTION    = 15.39596382
ECCENTRICITY   = .0001767
INCLINATION    = 53.1594
RA_OF_ASC_NODE = 13.1128
ARG_OF_PERICENTER = 85.8903
MEAN_ANOMALY   = 294.7520

EPHEMERIS_TYPE = 0
CLASSIFICATION_TYPE = U
NORAD_CAT_ID   = 66208
ELEMENT_SET_NO = 999
REV_AT_EPOCH   = 506
BSTAR          = .97162E-3
MEAN_MOTION_DOT = .38632E-3
MEAN_MOTION_DDOT = 0

CCSDS_OMM_VERS = 2.0
CREATION_DATE  = 
ORIGINATOR     = 

OBJECT_NAME    = STARLINK-35750
OBJECT_ID      = 2025-244D
CENTER_NAME    = EARTH
REF_FRAME      = TEME
TIME_SYSTEM    = UTC
MEAN_ELEMENT_THEORY = SGP/SGP4

EPOCH          = 2025-11-22T04:00:05.999040
MEAN_MOTION    = 15.39560000
ECCENTRICITY   = .0001112
INCLINATION    = 53.1593
RA_OF_ASC_NODE = 13.0601
ARG_OF_PERICENTER = 107.7235
MEAN_ANOMALY   = 298.7378

EPHEMERIS_TYPE = 0
CLASSIFICATION_TYPE = U
NORAD_CAT_ID   = 66209
ELEMENT_SET_NO = 999
REV_AT_EPOCH   = 503
BSTAR          = .12247E-2
MEAN_MOTION_DOT = .48806E-3
MEAN_MOTION_DDOT = 0

CCSDS_OMM_VERS = 2.0
CREATION_DATE  = 
ORIGINATOR     = 

OBJECT_NAME    = STARLINK-35740
OBJECT_ID      = 2025-244E
CENTER_NAME    = EARTH
REF_FRAME      = TEME
TIME_SYSTEM    = UTC
MEAN_ELEMENT_THEORY = SGP/SGP4

EPOCH          = 2025-11-22T04:00:05.999040
MEAN_MOTION    = 15.39620883
ECCENTRICITY   = .0000902
INCLINATION    = 53.1594
RA_OF_ASC_NODE = 13.0646
ARG_OF_PERICENTER = 94.1405
MEAN_ANOMALY   = 310.4028

EPHEMERIS_TYPE = 0
CLASSIFICATION_TYPE = U
NORAD_CAT_ID   = 66210
ELEMENT_SET_NO = 999
REV_AT_EPOCH   = 490
BSTAR          = .18922E-2
MEAN_MOTION_DOT = .76047E-3
MEAN_MOTION_DDOT = 0

CCSDS_OMM_VERS = 2.0
CREATION_DATE  = 
ORIGINATOR     = 

OBJECT_NAME    = STARLINK-35723
OBJECT_ID      = 2025-244F
CENTER_NAME    = EARTH
REF_FRAME      = TEME
TIME_SYSTEM    = UTC
MEAN_ELEMENT_THEORY = SGP/SGP4

EPOCH          = 2025-11-22T04:00:05.999040
MEAN_MOTION    = 15.39602335
ECCENTRICITY   = .0001407
INCLINATION    = 53.1596
RA_OF_ASC_NODE = 13.0125
ARG_OF_PERICENTER = 95.8080
MEAN_ANOMALY   = 334.4873

EPHEMERIS_TYPE = 0
CLASSIFICATION_TYPE = U
NORAD_CAT_ID   = 66211
ELEMENT_SET_NO = 999
REV_AT_EPOCH   = 495
BSTAR          = .96979E-3
MEAN_MOTION_DOT = .38565E-3
MEAN_MOTION_DDOT = 0

CCSDS_OMM_VERS = 2.0
CREATION_DATE  = 
ORIGINATOR     = 

OBJECT_NAME    = STARLINK-35710
OBJECT_ID      = 2025-244G
CENTER_NAME    = EARTH
REF_FRAME      = TEME
TIME_SYSTEM    = UTC
MEAN_ELEMENT_THEORY = SGP/SGP4

EPOCH          = 2025-11-22T04:00:05.999040
MEAN_MOTION    = 15.39601673
ECCENTRICITY   = .0002074
INCLINATION    = 53.1599
RA_OF_ASC_NODE = 12.9607
ARG_OF_PERICENTER = 85.0905
MEAN_ANOMALY   = 10.8871

EPHEMERIS_TYPE = 0
CLASSIFICATION_TYPE = U
NORAD_CAT_ID   = 66212
ELEMENT_SET_NO = 999
REV_AT_EPOCH   = 503
BSTAR          = .14553E-2
MEAN_MOTION_DOT = .58222E-3
MEAN_MOTION_DDOT = 0

CCSDS_OMM_VERS = 2.0
CREATION_DATE  = 
ORIGINATOR     = 

OBJECT_NAME    = STARLINK-34204
OBJECT_ID      = 2025-244H
CENTER_NAME    = EARTH
REF_FRAME      = TEME
TIME_SYSTEM    = UTC
MEAN_ELEMENT_THEORY = SGP/SGP4

EPOCH          = 2025-11-22T04:00:05.999040
MEAN_MOTION    = 15.39601357
ECCENTRICITY   = .0001398
INCLINATION    = 53.1596
RA_OF_ASC_NODE = 13.0091
ARG_OF_PERICENTER = 78.2025
MEAN_ANOMALY   = 353.9406

EPHEMERIS_TYPE = 0
CLASSIFICATION_TYPE = U
NORAD_CAT_ID   = 66213
ELEMENT_SET_NO = 999
REV_AT_EPOCH   = 522
BSTAR          = .97355E-3
MEAN_MOTION_DOT = .38716E-3
MEAN_MOTION_DDOT = 0

CCSDS_OMM_VERS = 2.0
CREATION_DATE  = 
ORIGINATOR     = 

OBJECT_NAME    = STARLINK-35714
OBJECT_ID      = 2025-244J
CENTER_NAME    = EARTH
REF_FRAME      = TEME
TIME_SYSTEM    = UTC
MEAN_ELEMENT_THEORY = SGP/SGP4

EPOCH          = 2025-11-22T04:00:05.999040
MEAN_MOTION    = 15.42927712
ECCENTRICITY   = .0000985
INCLINATION    = 53.1608
RA_OF_ASC_NODE = 12.8656
ARG_OF_PERICENTER = 74.9195
MEAN_ANOMALY   = 68.2559

EPHEMERIS_TYPE = 0
CLASSIFICATION_TYPE = U
NORAD_CAT_ID   = 66214
ELEMENT_SET_NO = 999
REV_AT_EPOCH   = 490
BSTAR          = -.49349E-1
MEAN_MOTION_DOT = -.1968039E-1
MEAN_MOTION_DDOT = 0

CCSDS_OMM_VERS = 2.0
CREATION_DATE  = 
ORIGINATOR     = 

OBJECT_NAME    = STARLINK-35712
OBJECT_ID      = 2025-244K
CENTER_NAME    = EARTH
REF_FRAME      = TEME
TIME_SYSTEM    = UTC
MEAN_ELEMENT_THEORY = SGP/SGP4

EPOCH          = 2025-11-21T22:39:30.909600
MEAN_MOTION    = 15.48896112
ECCENTRICITY   = .0007902
INCLINATION    = 53.1600
RA_OF_ASC_NODE = 13.8929
ARG_OF_PERICENTER = 241.5361
MEAN_ANOMALY   = 118.4852

EPHEMERIS_TYPE = 0
CLASSIFICATION_TYPE = U
NORAD_CAT_ID   = 66215
ELEMENT_SET_NO = 999
REV_AT_EPOCH   = 511
BSTAR          = .15747E-2
MEAN_MOTION_DOT = .86926E-3
MEAN_MOTION_DDOT = 0

